ONEWEB-0128             
1 47274U 20100S   24236.75869386  .00000440  00000+0  11868-2 0  9999
2 47274  87.8930 122.6175 0001511  79.7176 280.4122 13.12443902177856
ONEWEB-0129             
1 47275U 20100T   24236.73760643  .00000194  00000+0  50281-3 0  9993
2 47275  87.8922 122.5840 0003034 105.4230 254.7234 13.12445873177785
ONEWEB-0130             
1 47276U 20100U   24237.45132743  .00000353  00000+0  94460-3 0  9992
2 47276  87.8919 122.4489 0001759  82.1966 277.9362 13.12441061177840
ONEWEB-0131             
1 47277U 20100V   24237.14312367  .00000466  00000+0  12601-2 0  9992
2 47277  87.8923 122.5269 0001666  77.4050 282.7265 13.12443792177840
ONEWEB-0132             
1 47278U 20100W   24237.40102898 -.00000354  00000+0 -10206-2 0  9995
2 47278  87.8923 122.4776 0001724  70.4648 289.6666 13.12440358177772
ONEWEB-0133             
1 47279U 20100X   24236.50240929 -.00000002  00000+0 -41722-4 0  9993
2 47279  87.8917 122.6509 0001688  76.4874 283.6443 13.12444004177812
ONEWEB-0134             
1 47280U 20100Y   24236.62406071 -.00000129  00000+0 -39279-3 0  9993
2 47280  87.8916 122.6140 0001639  84.8801 275.2514 13.12445266177809
ONEWEB-0135             
1 47281U 20100Z   24236.44239856  .00000489  00000+0  13237-2 0  9991
2 47281  87.8921 122.6702 0001387  88.4334 271.6953 13.12443196177808
